STARLINK-1595
1 46159U 20057AU  26090.91671296  .00093385  00000+0  13695-2 0  9990
2 46159  53.0462 189.6249 0001778 258.2138 254.8837 15.54793618  5964
